SKYKRAFT-1A             
1 55054U 23001AX  26068.71064616  .00008177  00000+0  30069-3 0  9991
2 55054  97.3349 127.6290 0011277 121.5092 238.7251 15.28083228176529
STARLINK-32498          
1 61966U 24210H   26068.58512512  .00022434  00000+0  82165-3 0  9997
2 61966  43.0044 165.7411 0001894 285.7197  74.3445 15.27605242 75060
